STARLINK-1904_new
1 18389C 21038AN  21326.11422448  .00026464  00000-0  17744-2 0  3267
2 18389  53.0538 183.2197 0002021  76.5988 138.0501 15.06344944    16
STARLINK-1904_old
1 28389C 21038AN  21325.11892460  .00002975  00000-0  19928-3 0  3258
2 28389  53.0525 187.6825 0001932  78.8657 135.2197 15.06402201    17
